zip,Zipcode name,City,State,County Name
49610,"ACME, MI",ACME,MI,GRAND TRAVERSE
49301,"ADA, MI",ADA,MI,KENT
49355,"ADA, MI",ADA,MI,KENT
49356,"ADA, MI",ADA,MI,KENT
49220,"ADDISON, MI",ADDISON,MI,LENAWEE
49221,"ADRIAN, MI",ADRIAN,MI,LENAWEE
49705,"AFTON, MI",AFTON,MI,CHEBOYGAN
49901,"AHMEEK, MI",AHMEEK,MI,KEWEENAW
48701,"AKRON, MI",AKRON,MI,TUSCOLA
49706,"ALANSON, MI",ALANSON,MI,EMMET
49611,"ALBA, MI",ALBA,MI,ANTRIM
49224,"ALBION, MI",ALBION,MI,CALHOUN
49612,"ALDEN, MI",ALDEN,MI,ANTRIM
48610,"ALGER, MI",ALGER,MI,ARENAC
48001,"ALGONAC, MI",ALGONAC,MI,SAINT CLAIR
49010,"ALLEGAN, MI",ALLEGAN,MI,ALLEGAN
49227,"ALLEN, MI",ALLEN,MI,HILLSDALE
48101,"ALLEN PARK, MI",ALLEN PARK,MI,WAYNE
49401,"ALLENDALE, MI",ALLENDALE,MI,OTTAWA
48002,"ALLENTON, MI",ALLENTON,MI,SAINT CLAIR
49805,"ALLOUEZ, MI",ALLOUEZ,MI,KEWEENAW
48801,"ALMA, MI",ALMA,MI,GRATIOT
48003,"ALMONT, MI",ALMONT,MI,LAPEER
49707,"ALPENA, MI",ALPENA,MI,ALPENA
49902,"ALPHA, MI",ALPHA,MI,IRON
49302,"ALTO, MI",ALTO,MI,KENT
49903,"AMASA, MI",AMASA,MI,IRON
48004,"ANCHORVILLE, MI",ANCHORVILLE,MI,SAINT CLAIR
48103,"ANN ARBOR, MI",ANN ARBOR,MI,WASHTENAW
48104,"ANN ARBOR, MI",ANN ARBOR,MI,WASHTENAW
48105,"ANN ARBOR, MI",ANN ARBOR,MI,WASHTENAW
48106,"ANN ARBOR, MI",ANN ARBOR,MI,WASHTENAW
48107,"ANN ARBOR, MI",ANN ARBOR,MI,WASHTENAW
48108,"ANN ARBOR, MI",ANN ARBOR,MI,WASHTENAW
48109,"ANN ARBOR, MI",ANN ARBOR,MI,WASHTENAW
48113,"ANN ARBOR, MI",ANN ARBOR,MI,WASHTENAW
48401,"APPLEGATE, MI",APPLEGATE,MI,SANILAC
49613,"ARCADIA, MI",ARCADIA,MI,MANISTEE
48410,"ARGYLE, MI",ARGYLE,MI,SANILAC
48005,"ARMADA, MI",ARMADA,MI,MACOMB
49819,"ARNOLD, MI",ARNOLD,MI,MARQUETTE
48806,"ASHLEY, MI",ASHLEY,MI,GRATIOT
49011,"ATHENS, MI",ATHENS,MI,CALHOUN
49709,"ATLANTA, MI",ATLANTA,MI,MONTMORENCY
49905,"ATLANTIC MINE, MI",ATLANTIC MINE,MI,HOUGHTON
48411,"ATLAS, MI",ATLAS,MI,GENESEE
48412,"ATTICA, MI",ATTICA,MI,LAPEER
48703,"AU GRES, MI",AU GRES,MI,ARENAC
49806,"AU TRAIN, MI",AU TRAIN,MI,ALGER
48611,"AUBURN, MI",AUBURN,MI,BAY
48321,"AUBURN HILLS, MI",AUBURN HILLS,MI,OAKLAND
48326,"AUBURN HILLS, MI",AUBURN HILLS,MI,OAKLAND
49012,"AUGUSTA, MI",AUGUSTA,MI,KALAMAZOO
48006,"AVOCA, MI",AVOCA,MI,SAINT CLAIR
48110,"AZALIA, MI",AZALIA,MI,MONROE
48413,"BAD AXE, MI",BAD AXE,MI,HURON
49303,"BAILEY, MI",BAILEY,MI,MUSKEGON
49304,"BALDWIN, MI",BALDWIN,MI,LAKE
48414,"BANCROFT, MI",BANCROFT,MI,SHIAWASSEE
49013,"BANGOR, MI",BANGOR,MI,VAN BUREN
48807,"BANNISTER, MI",BANNISTER,MI,GRATIOT
49908,"BARAGA, MI",BARAGA,MI,BARAGA
49710,"BARBEAU, MI",BARBEAU,MI,CHIPPEWA
49807,"BARK RIVER, MI",BARK RIVER,MI,DELTA
49101,"BARODA, MI",BARODA,MI,BERRIEN
49305,"BARRYTON, MI",BARRYTON,MI,MECOSTA
48705,"BARTON CITY, MI",BARTON CITY,MI,ALCONA
48808,"BATH, MI",BATH,MI,CLINTON
49014,"BATTLE CREEK, MI",BATTLE CREEK,MI,CALHOUN
49015,"BATTLE CREEK, MI",BATTLE CREEK,MI,CALHOUN
49016,"BATTLE CREEK, MI",BATTLE CREEK,MI,CALHOUN
49017,"BATTLE CREEK, MI",BATTLE CREEK,MI,CALHOUN
49037,"BATTLE CREEK, MI",BATTLE CREEK,MI,CALHOUN
48706,"BAY CITY, MI",BAY CITY,MI,BAY
48707,"BAY CITY, MI",BAY CITY,MI,BAY
48708,"BAY CITY, MI",BAY CITY,MI,BAY
48720,"BAY PORT, MI",BAY PORT,MI,HURON
49711,"BAY SHORE, MI",BAY SHORE,MI,CHARLEVOIX
49614,"BEAR LAKE, MI",BEAR LAKE,MI,MANISTEE
49782,"BEAVER ISLAND, MI",BEAVER ISLAND,MI,CHARLEVOIX
48612,"BEAVERTON, MI",BEAVERTON,MI,GLADWIN
48809,"BELDING, MI",BELDING,MI,IONIA
49615,"BELLAIRE, MI",BELLAIRE,MI,ANTRIM
48111,"BELLEVILLE, MI",BELLEVILLE,MI,WAYNE
48112,"BELLEVILLE, MI",BELLEVILLE,MI,WAYNE
49021,"BELLEVUE, MI",BELLEVUE,MI,EATON
49306,"BELMONT, MI",BELMONT,MI,KENT
48613,"BENTLEY, MI",BENTLEY,MI,BAY
49022,"BENTON HARBOR, MI",BENTON HARBOR,MI,BERRIEN
49023,"BENTON HARBOR, MI",BENTON HARBOR,MI,BERRIEN
49616,"BENZONIA, MI",BENZONIA,MI,BENZIE
49910,"BERGLAND, MI",BERGLAND,MI,ONTONAGON
48072,"BERKLEY, MI",BERKLEY,MI,OAKLAND
49102,"BERRIEN CENTER, MI",BERRIEN CENTER,MI,BERRIEN
49103,"BERRIEN SPRINGS, MI",BERRIEN SPRINGS,MI,BERRIEN
49104,"BERRIEN SPRINGS, MI",BERRIEN SPRINGS,MI,BERRIEN
49911,"BESSEMER, MI",BESSEMER,MI,GOGEBIC
49617,"BEULAH, MI",BEULAH,MI,BENZIE
49808,"BIG BAY, MI",BIG BAY,MI,MARQUETTE
49307,"BIG RAPIDS, MI",BIG RAPIDS,MI,MECOSTA
48415,"BIRCH RUN, MI",BIRCH RUN,MI,SAGINAW
48009,"BIRMINGHAM, MI",BIRMINGHAM,MI,OAKLAND
48012,"BIRMINGHAM, MI",BIRMINGHAM,MI,OAKLAND
49309,"BITELY, MI",BITELY,MI,NEWAYGO
48721,"BLACK RIVER, MI",BLACK RIVER,MI,ALCONA
49310,"BLANCHARD, MI",BLANCHARD,MI,ISABELLA
49228,"BLISSFIELD, MI",BLISSFIELD,MI,LENAWEE
48301,"BLOOMFIELD HILLS, MI",BLOOMFIELD HILLS,MI,OAKLAND
48302,"BLOOMFIELD HILLS, MI",BLOOMFIELD HILLS,MI,OAKLAND
48303,"BLOOMFIELD HILLS, MI",BLOOMFIELD HILLS,MI,OAKLAND
48304,"BLOOMFIELD HILLS, MI",BLOOMFIELD HILLS,MI,OAKLAND
49026,"BLOOMINGDALE, MI",BLOOMINGDALE,MI,VAN BUREN
49618,"BOON, MI",BOON,MI,WEXFORD
49712,"BOYNE CITY, MI",BOYNE CITY,MI,CHARLEVOIX
49713,"BOYNE FALLS, MI",BOYNE FALLS,MI,CHARLEVOIX
49311,"BRADLEY, MI",BRADLEY,MI,ALLEGAN
49402,"BRANCH, MI",BRANCH,MI,MASON
48614,"BRANT, MI",BRANT,MI,SAGINAW
48615,"BRECKENRIDGE, MI",BRECKENRIDGE,MI,GRATIOT
49027,"BREEDSVILLE, MI",BREEDSVILLE,MI,VAN BUREN
49619,"BRETHREN, MI",BRETHREN,MI,MANISTEE
48722,"BRIDGEPORT, MI",BRIDGEPORT,MI,SAGINAW
48115,"BRIDGEWATER, MI",BRIDGEWATER,MI,WASHTENAW
49106,"BRIDGMAN, MI",BRIDGMAN,MI,BERRIEN
48114,"BRIGHTON, MI",BRIGHTON,MI,LIVINGSTON
48116,"BRIGHTON, MI",BRIGHTON,MI,LIVINGSTON
49715,"BRIMLEY, MI",BRIMLEY,MI,CHIPPEWA
49229,"BRITTON, MI",BRITTON,MI,LENAWEE
49312,"BROHMAN, MI",BROHMAN,MI,NEWAYGO
49028,"BRONSON, MI",BRONSON,MI,BRANCH
49230,"BROOKLYN, MI",BROOKLYN,MI,JACKSON
48416,"BROWN CITY, MI",BROWN CITY,MI,SANILAC
49912,"BRUCE CROSSING, MI",BRUCE CROSSING,MI,ONTONAGON
49716,"BRUTUS, MI",BRUTUS,MI,EMMET
49107,"BUCHANAN, MI",BUCHANAN,MI,BERRIEN
49620,"BUCKLEY, MI",BUCKLEY,MI,WEXFORD
49029,"BURLINGTON, MI",BURLINGTON,MI,CALHOUN
49314,"BURNIPS, MI",BURNIPS,MI,ALLEGAN
49030,"BURR OAK, MI",BURR OAK,MI,SAINT JOSEPH
48417,"BURT, MI",BURT,MI,SAGINAW
49717,"BURT LAKE, MI",BURT LAKE,MI,CHEBOYGAN
48509,"BURTON, MI",BURTON,MI,GENESEE
48519,"BURTON, MI",BURTON,MI,GENESEE
48529,"BURTON, MI",BURTON,MI,GENESEE
48418,"BYRON, MI",BYRON,MI,SHIAWASSEE
49315,"BYRON CENTER, MI",BYRON CENTER,MI,KENT
49601,"CADILLAC, MI",CADILLAC,MI,WEXFORD
49316,"CALEDONIA, MI",CALEDONIA,MI,KENT
49913,"CALUMET, MI",CALUMET,MI,HOUGHTON
49232,"CAMDEN, MI",CAMDEN,MI,HILLSDALE
49317,"CANNONSBURG, MI",CANNONSBURG,MI,KENT
48187,"CANTON, MI",CANTON,MI,WAYNE
48188,"CANTON, MI",CANTON,MI,WAYNE
48014,"CAPAC, MI",CAPAC,MI,SAINT CLAIR
48117,"CARLETON, MI",CARLETON,MI,MONROE
49812,"CARNEY, MI",CARNEY,MI,MENOMINEE
48723,"CARO, MI",CARO,MI,TUSCOLA
49718,"CARP LAKE, MI",CARP LAKE,MI,EMMET
48724,"CARROLLTON, MI",CARROLLTON,MI,SAGINAW
48811,"CARSON CITY, MI",CARSON CITY,MI,MONTCALM
48419,"CARSONVILLE, MI",CARSONVILLE,MI,SANILAC
48064,"CASCO, MI",CASCO,MI,SAINT CLAIR
48725,"CASEVILLE, MI",CASEVILLE,MI,HURON
49318,"CASNOVIA, MI",CASNOVIA,MI,MUSKEGON
49915,"CASPIAN, MI",CASPIAN,MI,IRON
48726,"CASS CITY, MI",CASS CITY,MI,TUSCOLA
49031,"CASSOPOLIS, MI",CASSOPOLIS,MI,CASS
49621,"CEDAR, MI",CEDAR,MI,LEELANAU
48812,"CEDAR LAKE, MI",CEDAR LAKE,MI,MONTCALM
49319,"CEDAR SPRINGS, MI",CEDAR SPRINGS,MI,KENT
49719,"CEDARVILLE, MI",CEDARVILLE,MI,MACKINAC
49233,"CEMENT CITY, MI",CEMENT CITY,MI,LENAWEE
48015,"CENTER LINE, MI",CENTER LINE,MI,MACOMB
49622,"CENTRAL LAKE, MI",CENTRAL LAKE,MI,ANTRIM
49032,"CENTREVILLE, MI",CENTREVILLE,MI,SAINT JOSEPH
49033,"CERESCO, MI",CERESCO,MI,CALHOUN
49814,"CHAMPION, MI",CHAMPION,MI,MARQUETTE
49815,"CHANNING, MI",CHANNING,MI,DICKINSON
49720,"CHARLEVOIX, MI",CHARLEVOIX,MI,CHARLEVOIX
48813,"CHARLOTTE, MI",CHARLOTTE,MI,EATON
49623,"CHASE, MI",CHASE,MI,LAKE
49916,"CHASSELL, MI",CHASSELL,MI,HOUGHTON
49816,"CHATHAM, MI",CHATHAM,MI,ALGER
49721,"CHEBOYGAN, MI",CHEBOYGAN,MI,CHEBOYGAN
48118,"CHELSEA, MI",CHELSEA,MI,WASHTENAW
48616,"CHESANING, MI",CHESANING,MI,SAGINAW
49320,"CHIPPEWA LAKE, MI",CHIPPEWA LAKE,MI,MECOSTA
48617,"CLARE, MI",CLARE,MI,CLARE
49234,"CLARKLAKE, MI",CLARKLAKE,MI,JACKSON
48346,"CLARKSTON, MI",CLARKSTON,MI,OAKLAND
48347,"CLARKSTON, MI",CLARKSTON,MI,OAKLAND
48348,"CLARKSTON, MI",CLARKSTON,MI,OAKLAND
48815,"CLARKSVILLE, MI",CLARKSVILLE,MI,IONIA
48017,"CLAWSON, MI",CLAWSON,MI,OAKLAND
49235,"CLAYTON, MI",CLAYTON,MI,LENAWEE
48727,"CLIFFORD, MI",CLIFFORD,MI,LAPEER
49034,"CLIMAX, MI",CLIMAX,MI,KALAMAZOO
49236,"CLINTON, MI",CLINTON,MI,LENAWEE
48035,"CLINTON TOWNSHIP, MI",CLINTON TOWNSHIP,MI,MACOMB
48036,"CLINTON TOWNSHIP, MI",CLINTON TOWNSHIP,MI,MACOMB
48038,"CLINTON TOWNSHIP, MI",CLINTON TOWNSHIP,MI,MACOMB
48420,"CLIO, MI",CLIO,MI,GENESEE
49035,"CLOVERDALE, MI",CLOVERDALE,MI,BARRY
48816,"COHOCTAH, MI",COHOCTAH,MI,LIVINGSTON
49036,"COLDWATER, MI",COLDWATER,MI,BRANCH
48618,"COLEMAN, MI",COLEMAN,MI,MIDLAND
49038,"COLOMA, MI",COLOMA,MI,BERRIEN
49040,"COLON, MI",COLON,MI,SAINT JOSEPH
48421,"COLUMBIAVILLE, MI",COLUMBIAVILLE,MI,LAPEER
48063,"COLUMBUS, MI",COLUMBUS,MI,SAINT CLAIR
48619,"COMINS, MI",COMINS,MI,OSCODA
48382,"COMMERCE TOWNSHIP, MI",COMMERCE TOWNSHIP,MI,OAKLAND
49041,"COMSTOCK, MI",COMSTOCK,MI,KALAMAZOO
49321,"COMSTOCK PARK, MI",COMSTOCK PARK,MI,KENT
49237,"CONCORD, MI",CONCORD,MI,JACKSON
49403,"CONKLIN, MI",CONKLIN,MI,OTTAWA
49042,"CONSTANTINE, MI",CONSTANTINE,MI,SAINT JOSEPH
49722,"CONWAY, MI",CONWAY,MI,EMMET
49817,"COOKS, MI",COOKS,MI,SCHOOLCRAFT
49404,"COOPERSVILLE, MI",COOPERSVILLE,MI,OTTAWA
49625,"COPEMISH, MI",COPEMISH,MI,MANISTEE
49917,"COPPER CITY, MI",COPPER CITY,MI,HOUGHTON
49918,"COPPER HARBOR, MI",COPPER HARBOR,MI,KEWEENAW
49322,"CORAL, MI",CORAL,MI,MONTCALM
49818,"CORNELL, MI",CORNELL,MI,DELTA
48817,"CORUNNA, MI",CORUNNA,MI,SHIAWASSEE
49043,"COVERT, MI",COVERT,MI,VAN BUREN
49919,"COVINGTON, MI",COVINGTON,MI,BARAGA
49723,"CROSS VILLAGE, MI",CROSS VILLAGE,MI,EMMET
48422,"CROSWELL, MI",CROSWELL,MI,SANILAC
48818,"CRYSTAL, MI",CRYSTAL,MI,MONTCALM
49920,"CRYSTAL FALLS, MI",CRYSTAL FALLS,MI,IRON
48728,"CURRAN, MI",CURRAN,MI,ALCONA
49820,"CURTIS, MI",CURTIS,MI,MACKINAC
49405,"CUSTER, MI",CUSTER,MI,MASON
49724,"DAFTER, MI",DAFTER,MI,CHIPPEWA
49821,"DAGGETT, MI",DAGGETT,MI,MENOMINEE
48819,"DANSVILLE, MI",DANSVILLE,MI,INGHAM
48350,"DAVISBURG, MI",DAVISBURG,MI,OAKLAND
48423,"DAVISON, MI",DAVISON,MI,GENESEE
49725,"DE TOUR VILLAGE, MI",DE TOUR VILLAGE,MI,CHIPPEWA
48120,"DEARBORN, MI",DEARBORN,MI,WAYNE
48121,"DEARBORN, MI",DEARBORN,MI,WAYNE
48123,"DEARBORN, MI",DEARBORN,MI,WAYNE
48124,"DEARBORN, MI",DEARBORN,MI,WAYNE
48126,"DEARBORN, MI",DEARBORN,MI,WAYNE
48128,"DEARBORN, MI",DEARBORN,MI,WAYNE
48125,"DEARBORN HEIGHTS, MI",DEARBORN HEIGHTS,MI,WAYNE
48127,"DEARBORN HEIGHTS, MI",DEARBORN HEIGHTS,MI,WAYNE
49045,"DECATUR, MI",DECATUR,MI,VAN BUREN
48426,"DECKER, MI",DECKER,MI,SANILAC
48427,"DECKERVILLE, MI",DECKERVILLE,MI,SANILAC
49238,"DEERFIELD, MI",DEERFIELD,MI,LENAWEE
48729,"DEFORD, MI",DEFORD,MI,TUSCOLA
49046,"DELTON, MI",DELTON,MI,BARRY
48201,"DETROIT, MI",DETROIT,MI,WAYNE
48202,"DETROIT, MI",DETROIT,MI,WAYNE
48204,"DETROIT, MI",DETROIT,MI,WAYNE
48205,"DETROIT, MI",DETROIT,MI,WAYNE
48206,"DETROIT, MI",DETROIT,MI,WAYNE
48207,"DETROIT, MI",DETROIT,MI,WAYNE
48208,"DETROIT, MI",DETROIT,MI,WAYNE
48209,"DETROIT, MI",DETROIT,MI,WAYNE
48210,"DETROIT, MI",DETROIT,MI,WAYNE
48211,"DETROIT, MI",DETROIT,MI,WAYNE
48213,"DETROIT, MI",DETROIT,MI,WAYNE
48214,"DETROIT, MI",DETROIT,MI,WAYNE
48215,"DETROIT, MI",DETROIT,MI,WAYNE
48216,"DETROIT, MI",DETROIT,MI,WAYNE
48217,"DETROIT, MI",DETROIT,MI,WAYNE
48219,"DETROIT, MI",DETROIT,MI,WAYNE
48221,"DETROIT, MI",DETROIT,MI,WAYNE
48222,"DETROIT, MI",DETROIT,MI,WAYNE
48223,"DETROIT, MI",DETROIT,MI,WAYNE
48224,"DETROIT, MI",DETROIT,MI,WAYNE
48226,"DETROIT, MI",DETROIT,MI,WAYNE
48227,"DETROIT, MI",DETROIT,MI,WAYNE
48228,"DETROIT, MI",DETROIT,MI,WAYNE
48231,"DETROIT, MI",DETROIT,MI,WAYNE
48232,"DETROIT, MI",DETROIT,MI,WAYNE
48233,"DETROIT, MI",DETROIT,MI,WAYNE
48234,"DETROIT, MI",DETROIT,MI,WAYNE
48235,"DETROIT, MI",DETROIT,MI,WAYNE
48238,"DETROIT, MI",DETROIT,MI,WAYNE
48242,"DETROIT, MI",DETROIT,MI,WAYNE
48243,"DETROIT, MI",DETROIT,MI,WAYNE
48244,"DETROIT, MI",DETROIT,MI,WAYNE
48255,"DETROIT, MI",DETROIT,MI,WAYNE
48264,"DETROIT, MI",DETROIT,MI,WAYNE
48265,"DETROIT, MI",DETROIT,MI,WAYNE
48267,"DETROIT, MI",DETROIT,MI,WAYNE
48268,"DETROIT, MI",DETROIT,MI,WAYNE
48275,"DETROIT, MI",DETROIT,MI,WAYNE
48277,"DETROIT, MI",DETROIT,MI,WAYNE
48288,"DETROIT, MI",DETROIT,MI,WAYNE
48820,"DEWITT, MI",DEWITT,MI,CLINTON
48130,"DEXTER, MI",DEXTER,MI,WASHTENAW
48821,"DIMONDALE, MI",DIMONDALE,MI,EATON
49921,"DODGEVILLE, MI",DODGEVILLE,MI,HOUGHTON
49922,"DOLLAR BAY, MI",DOLLAR BAY,MI,HOUGHTON
49323,"DORR, MI",DORR,MI,ALLEGAN
49406,"DOUGLAS, MI",DOUGLAS,MI,ALLEGAN
49047,"DOWAGIAC, MI",DOWAGIAC,MI,CASS
49050,"DOWLING, MI",DOWLING,MI,BARRY
48330,"DRAYTON PLAINS, MI",DRAYTON PLAINS,MI,OAKLAND
49726,"DRUMMOND ISLAND, MI",DRUMMOND ISLAND,MI,CHIPPEWA
48428,"DRYDEN, MI",DRYDEN,MI,LAPEER
48131,"DUNDEE, MI",DUNDEE,MI,MONROE
48429,"DURAND, MI",DURAND,MI,SHIAWASSEE
48822,"EAGLE, MI",EAGLE,MI,CLINTON
48054,"EAST CHINA, MI",EAST CHINA,MI,SAINT CLAIR
49727,"EAST JORDAN, MI",EAST JORDAN,MI,CHARLEVOIX
48823,"EAST LANSING, MI",EAST LANSING,MI,INGHAM
48824,"EAST LANSING, MI",EAST LANSING,MI,INGHAM
48826,"EAST LANSING, MI",EAST LANSING,MI,INGHAM
49051,"EAST LEROY, MI",EAST LEROY,MI,CALHOUN
48730,"EAST TAWAS, MI",EAST TAWAS,MI,IOSCO
49626,"EASTLAKE, MI",EASTLAKE,MI,MANISTEE
48021,"EASTPOINTE, MI",EASTPOINTE,MI,MACOMB
49627,"EASTPORT, MI",EASTPORT,MI,ANTRIM
48827,"EATON RAPIDS, MI",EATON RAPIDS,MI,EATON
49111,"EAU CLAIRE, MI",EAU CLAIRE,MI,BERRIEN
49825,"EBEN JUNCTION, MI",EBEN JUNCTION,MI,ALGER
49728,"ECKERMAN, MI",ECKERMAN,MI,CHIPPEWA
48229,"ECORSE, MI",ECORSE,MI,WAYNE
48620,"EDENVILLE, MI",EDENVILLE,MI,MIDLAND
48829,"EDMORE, MI",EDMORE,MI,MONTCALM
49112,"EDWARDSBURG, MI",EDWARDSBURG,MI,CASS
49628,"ELBERTA, MI",ELBERTA,MI,BENZIE
49629,"ELK RAPIDS, MI",ELK RAPIDS,MI,ANTRIM
48731,"ELKTON, MI",ELKTON,MI,HURON
49729,"ELLSWORTH, MI",ELLSWORTH,MI,ANTRIM
48830,"ELM HALL, MI",ELM HALL,MI,GRATIOT
49730,"ELMIRA, MI",ELMIRA,MI,OTSEGO
48831,"ELSIE, MI",ELSIE,MI,CLINTON
48832,"ELWELL, MI",ELWELL,MI,GRATIOT
48022,"EMMETT, MI",EMMETT,MI,SAINT CLAIR
49630,"EMPIRE, MI",EMPIRE,MI,LEELANAU
49827,"ENGADINE, MI",ENGADINE,MI,MACKINAC
48133,"ERIE, MI",ERIE,MI,MONROE
49829,"ESCANABA, MI",ESCANABA,MI,DELTA
48732,"ESSEXVILLE, MI",ESSEXVILLE,MI,BAY
48833,"EUREKA, MI",EUREKA,MI,CLINTON
49631,"EVART, MI",EVART,MI,OSCEOLA
49925,"EWEN, MI",EWEN,MI,ONTONAGON
48023,"FAIR HAVEN, MI",FAIR HAVEN,MI,SAINT CLAIR
48733,"FAIRGROVE, MI",FAIRGROVE,MI,TUSCOLA
48621,"FAIRVIEW, MI",FAIRVIEW,MI,OSCODA
49632,"FALMOUTH, MI",FALMOUTH,MI,MISSAUKEE
48331,"FARMINGTON, MI",FARMINGTON,MI,OAKLAND
48332,"FARMINGTON, MI",FARMINGTON,MI,OAKLAND
48333,"FARMINGTON, MI",FARMINGTON,MI,OAKLAND
48334,"FARMINGTON, MI",FARMINGTON,MI,OAKLAND
48335,"FARMINGTON, MI",FARMINGTON,MI,OAKLAND
48336,"FARMINGTON, MI",FARMINGTON,MI,OAKLAND
48622,"FARWELL, MI",FARWELL,MI,CLARE
49831,"FELCH, MI",FELCH,MI,DICKINSON
49408,"FENNVILLE, MI",FENNVILLE,MI,ALLEGAN
48430,"FENTON, MI",FENTON,MI,GENESEE
48834,"FENWICK, MI",FENWICK,MI,MONTCALM
48220,"FERNDALE, MI",FERNDALE,MI,OAKLAND
49409,"FERRYSBURG, MI",FERRYSBURG,MI,OTTAWA
49633,"FIFE LAKE, MI",FIFE LAKE,MI,KALKASKA
49634,"FILER CITY, MI",FILER CITY,MI,MANISTEE
48432,"FILION, MI",FILION,MI,HURON
48134,"FLAT ROCK, MI",FLAT ROCK,MI,WAYNE
48501,"FLINT, MI",FLINT,MI,GENESEE
48502,"FLINT, MI",FLINT,MI,GENESEE
48503,"FLINT, MI",FLINT,MI,GENESEE
48504,"FLINT, MI",FLINT,MI,GENESEE
48505,"FLINT, MI",FLINT,MI,GENESEE
48506,"FLINT, MI",FLINT,MI,GENESEE
48507,"FLINT, MI",FLINT,MI,GENESEE
48531,"FLINT, MI",FLINT,MI,GENESEE
48532,"FLINT, MI",FLINT,MI,GENESEE
48551,"FLINT, MI",FLINT,MI,GENESEE
48552,"FLINT, MI",FLINT,MI,GENESEE
48553,"FLINT, MI",FLINT,MI,GENESEE
48554,"FLINT, MI",FLINT,MI,GENESEE
48556,"FLINT, MI",FLINT,MI,GENESEE
48433,"FLUSHING, MI",FLUSHING,MI,GENESEE
48434,"FORESTVILLE, MI",FORESTVILLE,MI,SANILAC
48059,"FORT GRATIOT, MI",FORT GRATIOT,MI,SAINT CLAIR
49834,"FOSTER CITY, MI",FOSTER CITY,MI,DICKINSON
48435,"FOSTORIA, MI",FOSTORIA,MI,TUSCOLA
49410,"FOUNTAIN, MI",FOUNTAIN,MI,MASON
48835,"FOWLER, MI",FOWLER,MI,CLINTON
48836,"FOWLERVILLE, MI",FOWLERVILLE,MI,LIVINGSTON
48734,"FRANKENMUTH, MI",FRANKENMUTH,MI,SAGINAW
48787,"FRANKENMUTH, MI",FRANKENMUTH,MI,SAGINAW
49635,"FRANKFORT, MI",FRANKFORT,MI,BENZIE
48025,"FRANKLIN, MI",FRANKLIN,MI,OAKLAND
48026,"FRASER, MI",FRASER,MI,MACOMB
49733,"FREDERIC, MI",FREDERIC,MI,CRAWFORD
49411,"FREE SOIL, MI",FREE SOIL,MI,MASON
48623,"FREELAND, MI",FREELAND,MI,SAGINAW
49325,"FREEPORT, MI",FREEPORT,MI,BARRY
49412,"FREMONT, MI",FREMONT,MI,NEWAYGO
49413,"FREMONT, MI",FREMONT,MI,NEWAYGO
49239,"FRONTIER, MI",FRONTIER,MI,HILLSDALE
49415,"FRUITPORT, MI",FRUITPORT,MI,MUSKEGON
49052,"FULTON, MI",FULTON,MI,KALAMAZOO
49927,"GAASTRA, MI",GAASTRA,MI,IRON
48735,"GAGETOWN, MI",GAGETOWN,MI,TUSCOLA
48436,"GAINES, MI",GAINES,MI,GENESEE
49053,"GALESBURG, MI",GALESBURG,MI,KALAMAZOO
49113,"GALIEN, MI",GALIEN,MI,BERRIEN
49835,"GARDEN, MI",GARDEN,MI,DELTA
48135,"GARDEN CITY, MI",GARDEN CITY,MI,WAYNE
48136,"GARDEN CITY, MI",GARDEN CITY,MI,WAYNE
49734,"GAYLORD, MI",GAYLORD,MI,OTSEGO
49735,"GAYLORD, MI",GAYLORD,MI,OTSEGO
48437,"GENESEE, MI",GENESEE,MI,GENESEE
49836,"GERMFASK, MI",GERMFASK,MI,SCHOOLCRAFT
49837,"GLADSTONE, MI",GLADSTONE,MI,DELTA
48624,"GLADWIN, MI",GLADWIN,MI,GLADWIN
49636,"GLEN ARBOR, MI",GLEN ARBOR,MI,LEELANAU
49416,"GLENN, MI",GLENN,MI,ALLEGAN
48737,"GLENNIE, MI",GLENNIE,MI,ALCONA
49055,"GOBLES, MI",GOBLES,MI,VAN BUREN
49736,"GOETZVILLE, MI",GOETZVILLE,MI,CHIPPEWA
49737,"GOOD HART, MI",GOOD HART,MI,EMMET
48027,"GOODELLS, MI",GOODELLS,MI,SAINT CLAIR
48438,"GOODRICH, MI",GOODRICH,MI,GENESEE
49838,"GOULD CITY, MI",GOULD CITY,MI,MACKINAC
49326,"GOWEN, MI",GOWEN,MI,KENT
48439,"GRAND BLANC, MI",GRAND BLANC,MI,GENESEE
48480,"GRAND BLANC, MI",GRAND BLANC,MI,GENESEE
49417,"GRAND HAVEN, MI",GRAND HAVEN,MI,OTTAWA
49056,"GRAND JUNCTION, MI",GRAND JUNCTION,MI,VAN BUREN
48837,"GRAND LEDGE, MI",GRAND LEDGE,MI,EATON
49839,"GRAND MARAIS, MI",GRAND MARAIS,MI,ALGER
49501,"GRAND RAPIDS, MI",GRAND RAPIDS,MI,KENT
49502,"GRAND RAPIDS, MI",GRAND RAPIDS,MI,KENT
49503,"GRAND RAPIDS, MI",GRAND RAPIDS,MI,KENT
49504,"GRAND RAPIDS, MI",GRAND RAPIDS,MI,KENT
49505,"GRAND RAPIDS, MI",GRAND RAPIDS,MI,KENT
49506,"GRAND RAPIDS, MI",GRAND RAPIDS,MI,KENT
49507,"GRAND RAPIDS, MI",GRAND RAPIDS,MI,KENT
49508,"GRAND RAPIDS, MI",GRAND RAPIDS,MI,KENT
49510,"GRAND RAPIDS, MI",GRAND RAPIDS,MI,KENT
49512,"GRAND RAPIDS, MI",GRAND RAPIDS,MI,KENT
49514,"GRAND RAPIDS, MI",GRAND RAPIDS,MI,KENT
49515,"GRAND RAPIDS, MI",GRAND RAPIDS,MI,KENT
49516,"GRAND RAPIDS, MI",GRAND RAPIDS,MI,KENT
49518,"GRAND RAPIDS, MI",GRAND RAPIDS,MI,KENT
49523,"GRAND RAPIDS, MI",GRAND RAPIDS,MI,KENT
49525,"GRAND RAPIDS, MI",GRAND RAPIDS,MI,KENT
49528,"GRAND RAPIDS, MI",GRAND RAPIDS,MI,KENT
49530,"GRAND RAPIDS, MI",GRAND RAPIDS,MI,KENT
49534,"GRAND RAPIDS, MI",GRAND RAPIDS,MI,KENT
49544,"GRAND RAPIDS, MI",GRAND RAPIDS,MI,KENT
49546,"GRAND RAPIDS, MI",GRAND RAPIDS,MI,KENT
49548,"GRAND RAPIDS, MI",GRAND RAPIDS,MI,KENT
49560,"GRAND RAPIDS, MI",GRAND RAPIDS,MI,KENT
49588,"GRAND RAPIDS, MI",GRAND RAPIDS,MI,KENT
49418,"GRANDVILLE, MI",GRANDVILLE,MI,KENT
49468,"GRANDVILLE, MI",GRANDVILLE,MI,KENT
49327,"GRANT, MI",GRANT,MI,NEWAYGO
49240,"GRASS LAKE, MI",GRASS LAKE,MI,JACKSON
49637,"GRAWN, MI",GRAWN,MI,GRAND TRAVERSE
49738,"GRAYLING, MI",GRAYLING,MI,CRAWFORD
49739,"GRAYLING, MI",GRAYLING,MI,CRAWFORD
48738,"GREENBUSH, MI",GREENBUSH,MI,ALCONA
49929,"GREENLAND, MI",GREENLAND,MI,ONTONAGON
48838,"GREENVILLE, MI",GREENVILLE,MI,MONTCALM
48137,"GREGORY, MI",GREGORY,MI,LIVINGSTON
48138,"GROSSE ILE, MI",GROSSE ILE,MI,WAYNE
48230,"GROSSE POINTE, MI",GROSSE POINTE,MI,WAYNE
48236,"GROSSE POINTE, MI",GROSSE POINTE,MI,WAYNE
49840,"GULLIVER, MI",GULLIVER,MI,SCHOOLCRAFT
49841,"GWINN, MI",GWINN,MI,MARQUETTE
48440,"HADLEY, MI",HADLEY,MI,LAPEER
48739,"HALE, MI",HALE,MI,IOSCO
48139,"HAMBURG, MI",HAMBURG,MI,LIVINGSTON
49419,"HAMILTON, MI",HAMILTON,MI,ALLEGAN
48212,"HAMTRAMCK, MI",HAMTRAMCK,MI,WAYNE
49930,"HANCOCK, MI",HANCOCK,MI,HOUGHTON
49241,"HANOVER, MI",HANOVER,MI,JACKSON
49115,"HARBERT, MI",HARBERT,MI,BERRIEN
48441,"HARBOR BEACH, MI",HARBOR BEACH,MI,HURON
49740,"HARBOR SPRINGS, MI",HARBOR SPRINGS,MI,EMMET
48225,"HARPER WOODS, MI",HARPER WOODS,MI,WAYNE
49638,"HARRIETTA, MI",HARRIETTA,MI,WEXFORD
48625,"HARRISON, MI",HARRISON,MI,CLARE
48045,"HARRISON TOWNSHIP, MI",HARRISON TOWNSHIP,MI,MACOMB
48740,"HARRISVILLE, MI",HARRISVILLE,MI,ALCONA
48028,"HARSENS ISLAND, MI",HARSENS ISLAND,MI,SAINT CLAIR
49420,"HART, MI",HART,MI,OCEANA
49057,"HARTFORD, MI",HARTFORD,MI,VAN BUREN
48353,"HARTLAND, MI",HARTLAND,MI,LIVINGSTON
48840,"HASLETT, MI",HASLETT,MI,INGHAM
49058,"HASTINGS, MI",HASTINGS,MI,BARRY
49743,"HAWKS, MI",HAWKS,MI,PRESQUE ISLE
48030,"HAZEL PARK, MI",HAZEL PARK,MI,OAKLAND
48626,"HEMLOCK, MI",HEMLOCK,MI,SAGINAW
48841,"HENDERSON, MI",HENDERSON,MI,SHIAWASSEE
49847,"HERMANSVILLE, MI",HERMANSVILLE,MI,MENOMINEE
49744,"HERRON, MI",HERRON,MI,ALPENA
49639,"HERSEY, MI",HERSEY,MI,OSCEOLA
49421,"HESPERIA, MI",HESPERIA,MI,OCEANA
49745,"HESSEL, MI",HESSEL,MI,MACKINAC
49060,"HICKORY CORNERS, MI",HICKORY CORNERS,MI,BARRY
48627,"HIGGINS LAKE, MI",HIGGINS LAKE,MI,ROSCOMMON
48356,"HIGHLAND, MI",HIGHLAND,MI,OAKLAND
48357,"HIGHLAND, MI",HIGHLAND,MI,OAKLAND
48203,"HIGHLAND PARK, MI",HIGHLAND PARK,MI,WAYNE
49746,"HILLMAN, MI",HILLMAN,MI,MONTMORENCY
49242,"HILLSDALE, MI",HILLSDALE,MI,HILLSDALE
49422,"HOLLAND, MI",HOLLAND,MI,OTTAWA
49423,"HOLLAND, MI",HOLLAND,MI,OTTAWA
49424,"HOLLAND, MI",HOLLAND,MI,OTTAWA
48442,"HOLLY, MI",HOLLY,MI,OAKLAND
48842,"HOLT, MI",HOLT,MI,INGHAM
49425,"HOLTON, MI",HOLTON,MI,MUSKEGON
49245,"HOMER, MI",HOMER,MI,CALHOUN
49640,"HONOR, MI",HONOR,MI,BENZIE
48628,"HOPE, MI",HOPE,MI,MIDLAND
49328,"HOPKINS, MI",HOPKINS,MI,ALLEGAN
49246,"HORTON, MI",HORTON,MI,JACKSON
49931,"HOUGHTON, MI",HOUGHTON,MI,HOUGHTON
48629,"HOUGHTON LAKE, MI",HOUGHTON LAKE,MI,ROSCOMMON
48630,"HOUGHTON LAKE HEIGHTS, MI",HOUGHTON LAKE HEIGHTS,MI,ROSCOMMON
49329,"HOWARD CITY, MI",HOWARD CITY,MI,MONTCALM
48843,"HOWELL, MI",HOWELL,MI,LIVINGSTON
48844,"HOWELL, MI",HOWELL,MI,LIVINGSTON
48855,"HOWELL, MI",HOWELL,MI,LIVINGSTON
49747,"HUBBARD LAKE, MI",HUBBARD LAKE,MI,ALPENA
48845,"HUBBARDSTON, MI",HUBBARDSTON,MI,IONIA
49934,"HUBBELL, MI",HUBBELL,MI,HOUGHTON
49247,"HUDSON, MI",HUDSON,MI,LENAWEE
49426,"HUDSONVILLE, MI",HUDSONVILLE,MI,OTTAWA
49748,"HULBERT, MI",HULBERT,MI,CHIPPEWA
48070,"HUNTINGTON WOODS, MI",HUNTINGTON WOODS,MI,OAKLAND
48140,"IDA, MI",IDA,MI,MONROE
49642,"IDLEWILD, MI",IDLEWILD,MI,LAKE
48444,"IMLAY CITY, MI",IMLAY CITY,MI,LAPEER
49749,"INDIAN RIVER, MI",INDIAN RIVER,MI,CHEBOYGAN
49848,"INGALLS, MI",INGALLS,MI,MENOMINEE
48141,"INKSTER, MI",INKSTER,MI,WAYNE
49643,"INTERLOCHEN, MI",INTERLOCHEN,MI,GRAND TRAVERSE
48846,"IONIA, MI",IONIA,MI,IONIA
49801,"IRON MOUNTAIN, MI",IRON MOUNTAIN,MI,DICKINSON
49935,"IRON RIVER, MI",IRON RIVER,MI,IRON
49644,"IRONS, MI",IRONS,MI,LAKE
49938,"IRONWOOD, MI",IRONWOOD,MI,GOGEBIC
49849,"ISHPEMING, MI",ISHPEMING,MI,MARQUETTE
48847,"ITHACA, MI",ITHACA,MI,GRATIOT
49201,"JACKSON, MI",JACKSON,MI,JACKSON
49202,"JACKSON, MI",JACKSON,MI,JACKSON
49203,"JACKSON, MI",JACKSON,MI,JACKSON
49204,"JACKSON, MI",JACKSON,MI,JACKSON
49427,"JAMESTOWN, MI",JAMESTOWN,MI,OTTAWA
49248,"JASPER, MI",JASPER,MI,LENAWEE
48032,"JEDDO, MI",JEDDO,MI,SAINT CLAIR
49428,"JENISON, MI",JENISON,MI,OTTAWA
49429,"JENISON, MI",JENISON,MI,OTTAWA
49249,"JEROME, MI",JEROME,MI,HILLSDALE
49751,"JOHANNESBURG, MI",JOHANNESBURG,MI,OTSEGO
49061,"JONES, MI",JONES,MI,CASS
49250,"JONESVILLE, MI",JONESVILLE,MI,HILLSDALE
49001,"KALAMAZOO, MI",KALAMAZOO,MI,KALAMAZOO
49003,"KALAMAZOO, MI",KALAMAZOO,MI,KALAMAZOO
49004,"KALAMAZOO, MI",KALAMAZOO,MI,KALAMAZOO
49005,"KALAMAZOO, MI",KALAMAZOO,MI,KALAMAZOO
49006,"KALAMAZOO, MI",KALAMAZOO,MI,KALAMAZOO
49007,"KALAMAZOO, MI",KALAMAZOO,MI,KALAMAZOO
49008,"KALAMAZOO, MI",KALAMAZOO,MI,KALAMAZOO
49009,"KALAMAZOO, MI",KALAMAZOO,MI,KALAMAZOO
49019,"KALAMAZOO, MI",KALAMAZOO,MI,KALAMAZOO
49048,"KALAMAZOO, MI",KALAMAZOO,MI,KALAMAZOO
49645,"KALEVA, MI",KALEVA,MI,MANISTEE
49646,"KALKASKA, MI",KALKASKA,MI,KALKASKA
48631,"KAWKAWLIN, MI",KAWKAWLIN,MI,BAY
48320,"KEEGO HARBOR, MI",KEEGO HARBOR,MI,OAKLAND
49062,"KENDALL, MI",KENDALL,MI,VAN BUREN
49330,"KENT CITY, MI",KENT CITY,MI,KENT
49648,"KEWADIN, MI",KEWADIN,MI,ANTRIM
49784,"KINCHELOE, MI",KINCHELOE,MI,CHIPPEWA
49788,"KINCHELOE, MI",KINCHELOE,MI,CHIPPEWA
48445,"KINDE, MI",KINDE,MI,HURON
49802,"KINGSFORD, MI",KINGSFORD,MI,DICKINSON
49649,"KINGSLEY, MI",KINGSLEY,MI,GRAND TRAVERSE
48741,"KINGSTON, MI",KINGSTON,MI,TUSCOLA
49752,"KINROSS, MI",KINROSS,MI,CHIPPEWA
48145,"LA SALLE, MI",LA SALLE,MI,MONROE
49753,"LACHINE, MI",LACHINE,MI,ALPENA
48848,"LAINGSBURG, MI",LAINGSBURG,MI,SHIAWASSEE
48632,"LAKE, MI",LAKE,MI,CLARE
49650,"LAKE ANN, MI",LAKE ANN,MI,BENZIE
49651,"LAKE CITY, MI",LAKE CITY,MI,MISSAUKEE
48633,"LAKE GEORGE, MI",LAKE GEORGE,MI,CLARE
49653,"LAKE LEELANAU, MI",LAKE LEELANAU,MI,LEELANAU
49945,"LAKE LINDEN, MI",LAKE LINDEN,MI,HOUGHTON
48849,"LAKE ODESSA, MI",LAKE ODESSA,MI,IONIA
48359,"LAKE ORION, MI",LAKE ORION,MI,OAKLAND
48360,"LAKE ORION, MI",LAKE ORION,MI,OAKLAND
48361,"LAKE ORION, MI",LAKE ORION,MI,OAKLAND
48362,"LAKE ORION, MI",LAKE ORION,MI,OAKLAND
48143,"LAKELAND, MI",LAKELAND,MI,LIVINGSTON
49116,"LAKESIDE, MI",LAKESIDE,MI,BERRIEN
48850,"LAKEVIEW, MI",LAKEVIEW,MI,MONTCALM
48366,"LAKEVILLE, MI",LAKEVILLE,MI,OAKLAND
48144,"LAMBERTVILLE, MI",LAMBERTVILLE,MI,MONROE
49430,"LAMONT, MI",LAMONT,MI,OTTAWA
49946,"LANSE, MI",LANSE,MI,BARAGA
48906,"LANSING, MI",LANSING,MI,CLINTON
48908,"LANSING, MI",LANSING,MI,EATON
48917,"LANSING, MI",LANSING,MI,EATON
48901,"LANSING, MI",LANSING,MI,INGHAM
48909,"LANSING, MI",LANSING,MI,INGHAM
48910,"LANSING, MI",LANSING,MI,INGHAM
48911,"LANSING, MI",LANSING,MI,INGHAM
48912,"LANSING, MI",LANSING,MI,INGHAM
48913,"LANSING, MI",LANSING,MI,INGHAM
48915,"LANSING, MI",LANSING,MI,INGHAM
48916,"LANSING, MI",LANSING,MI,INGHAM
48918,"LANSING, MI",LANSING,MI,INGHAM
48933,"LANSING, MI",LANSING,MI,INGHAM
48951,"LANSING, MI",LANSING,MI,INGHAM
48446,"LAPEER, MI",LAPEER,MI,LAPEER
49064,"LAWRENCE, MI",LAWRENCE,MI,VAN BUREN
49065,"LAWTON, MI",LAWTON,MI,VAN BUREN
49654,"LELAND, MI",LELAND,MI,LEELANAU
48449,"LENNON, MI",LENNON,MI,GENESEE
48367,"LEONARD, MI",LEONARD,MI,OAKLAND
49066,"LEONIDAS, MI",LEONIDAS,MI,SAINT JOSEPH
49655,"LEROY, MI",LEROY,MI,OSCEOLA
49251,"LESLIE, MI",LESLIE,MI,INGHAM
49755,"LEVERING, MI",LEVERING,MI,EMMET
49756,"LEWISTON, MI",LEWISTON,MI,MONTMORENCY
48450,"LEXINGTON, MI",LEXINGTON,MI,SANILAC
48742,"LINCOLN, MI",LINCOLN,MI,ALCONA
48146,"LINCOLN PARK, MI",LINCOLN PARK,MI,WAYNE
48451,"LINDEN, MI",LINDEN,MI,GENESEE
48634,"LINWOOD, MI",LINWOOD,MI,BAY
49252,"LITCHFIELD, MI",LITCHFIELD,MI,HILLSDALE
49833,"LITTLE LAKE, MI",LITTLE LAKE,MI,MARQUETTE
48150,"LIVONIA, MI",LIVONIA,MI,WAYNE
48151,"LIVONIA, MI",LIVONIA,MI,WAYNE
48152,"LIVONIA, MI",LIVONIA,MI,WAYNE
48153,"LIVONIA, MI",LIVONIA,MI,WAYNE
48154,"LIVONIA, MI",LIVONIA,MI,WAYNE
48743,"LONG LAKE, MI",LONG LAKE,MI,IOSCO
49852,"LORETTO, MI",LORETTO,MI,DICKINSON
49331,"LOWELL, MI",LOWELL,MI,KENT
49431,"LUDINGTON, MI",LUDINGTON,MI,MASON
48157,"LUNA PIER, MI",LUNA PIER,MI,MONROE
48635,"LUPTON, MI",LUPTON,MI,OGEMAW
49656,"LUTHER, MI",LUTHER,MI,LAKE
48636,"LUZERNE, MI",LUZERNE,MI,OSCODA
48851,"LYONS, MI",LYONS,MI,IONIA
49434,"MACATAWA, MI",MACATAWA,MI,OTTAWA
49757,"MACKINAC ISLAND, MI",MACKINAC ISLAND,MI,MACKINAC
49701,"MACKINAW CITY, MI",MACKINAW CITY,MI,CHEBOYGAN
48042,"MACOMB, MI",MACOMB,MI,MACOMB
48044,"MACOMB, MI",MACOMB,MI,MACOMB
48071,"MADISON HEIGHTS, MI",MADISON HEIGHTS,MI,OAKLAND
49659,"MANCELONA, MI",MANCELONA,MI,ANTRIM
48158,"MANCHESTER, MI",MANCHESTER,MI,WASHTENAW
49660,"MANISTEE, MI",MANISTEE,MI,MANISTEE
49854,"MANISTIQUE, MI",MANISTIQUE,MI,SCHOOLCRAFT
49253,"MANITOU BEACH, MI",MANITOU BEACH,MI,LENAWEE
49663,"MANTON, MI",MANTON,MI,WEXFORD
49664,"MAPLE CITY, MI",MAPLE CITY,MI,LEELANAU
48853,"MAPLE RAPIDS, MI",MAPLE RAPIDS,MI,CLINTON
49067,"MARCELLUS, MI",MARCELLUS,MI,CASS
49947,"MARENISCO, MI",MARENISCO,MI,GOGEBIC
48039,"MARINE CITY, MI",MARINE CITY,MI,SAINT CLAIR
49665,"MARION, MI",MARION,MI,OSCEOLA
48453,"MARLETTE, MI",MARLETTE,MI,SANILAC
49435,"MARNE, MI",MARNE,MI,OTTAWA
49855,"MARQUETTE, MI",MARQUETTE,MI,MARQUETTE
49068,"MARSHALL, MI",MARSHALL,MI,CALHOUN
49070,"MARTIN, MI",MARTIN,MI,ALLEGAN
48040,"MARYSVILLE, MI",MARYSVILLE,MI,SAINT CLAIR
48854,"MASON, MI",MASON,MI,INGHAM
49948,"MASS CITY, MI",MASS CITY,MI,ONTONAGON
49071,"MATTAWAN, MI",MATTAWAN,MI,VAN BUREN
48159,"MAYBEE, MI",MAYBEE,MI,MONROE
49666,"MAYFIELD, MI",MAYFIELD,MI,GRAND TRAVERSE
48744,"MAYVILLE, MI",MAYVILLE,MI,TUSCOLA
49657,"MC BAIN, MI",MC BAIN,MI,MISSAUKEE
49853,"MC MILLAN, MI",MC MILLAN,MI,LUCE
48852,"MCBRIDES, MI",MCBRIDES,MI,MONTCALM
49436,"MEARS, MI",MEARS,MI,OCEANA
49332,"MECOSTA, MI",MECOSTA,MI,MECOSTA
48454,"MELVIN, MI",MELVIN,MI,SANILAC
48122,"MELVINDALE, MI",MELVINDALE,MI,WAYNE
48041,"MEMPHIS, MI",MEMPHIS,MI,SAINT CLAIR
49072,"MENDON, MI",MENDON,MI,SAINT JOSEPH
49858,"MENOMINEE, MI",MENOMINEE,MI,MENOMINEE
48637,"MERRILL, MI",MERRILL,MI,SAGINAW
49667,"MERRITT, MI",MERRITT,MI,MISSAUKEE
49668,"MESICK, MI",MESICK,MI,WEXFORD
48455,"METAMORA, MI",METAMORA,MI,LAPEER
49861,"MICHIGAMME, MI",MICHIGAMME,MI,MARQUETTE
49254,"MICHIGAN CENTER, MI",MICHIGAN CENTER,MI,JACKSON
48856,"MIDDLETON, MI",MIDDLETON,MI,GRATIOT
49333,"MIDDLEVILLE, MI",MIDDLEVILLE,MI,BARRY
48640,"MIDLAND, MI",MIDLAND,MI,MIDLAND
48641,"MIDLAND, MI",MIDLAND,MI,MIDLAND
48642,"MIDLAND, MI",MIDLAND,MI,MIDLAND
48667,"MIDLAND, MI",MIDLAND,MI,MIDLAND
48670,"MIDLAND, MI",MIDLAND,MI,MIDLAND
48674,"MIDLAND, MI",MIDLAND,MI,MIDLAND
48686,"MIDLAND, MI",MIDLAND,MI,MIDLAND
48745,"MIKADO, MI",MIKADO,MI,ALCONA
48160,"MILAN, MI",MILAN,MI,MONROE
48380,"MILFORD, MI",MILFORD,MI,OAKLAND
48381,"MILFORD, MI",MILFORD,MI,OAKLAND
49759,"MILLERSBURG, MI",MILLERSBURG,MI,PRESQUE ISLE
48746,"MILLINGTON, MI",MILLINGTON,MI,TUSCOLA
48456,"MINDEN CITY, MI",MINDEN CITY,MI,SANILAC
48647,"MIO, MI",MIO,MI,OSCODA
49950,"MOHAWK, MI",MOHAWK,MI,KEWEENAW
49335,"MOLINE, MI",MOLINE,MI,ALLEGAN
48161,"MONROE, MI",MONROE,MI,MONROE
48162,"MONROE, MI",MONROE,MI,MONROE
49437,"MONTAGUE, MI",MONTAGUE,MI,MUSKEGON
49255,"MONTGOMERY, MI",MONTGOMERY,MI,BRANCH
48457,"MONTROSE, MI",MONTROSE,MI,GENESEE
49760,"MORAN, MI",MORAN,MI,MACKINAC
49256,"MORENCI, MI",MORENCI,MI,LENAWEE
49336,"MORLEY, MI",MORLEY,MI,MECOSTA
48857,"MORRICE, MI",MORRICE,MI,SHIAWASSEE
49257,"MOSCOW, MI",MOSCOW,MI,HILLSDALE
49258,"MOSHERVILLE, MI",MOSHERVILLE,MI,HILLSDALE
48043,"MOUNT CLEMENS, MI",MOUNT CLEMENS,MI,MACOMB
48046,"MOUNT CLEMENS, MI",MOUNT CLEMENS,MI,MACOMB
48458,"MOUNT MORRIS, MI",MOUNT MORRIS,MI,GENESEE
48804,"MOUNT PLEASANT, MI",MOUNT PLEASANT,MI,ISABELLA
48858,"MOUNT PLEASANT, MI",MOUNT PLEASANT,MI,ISABELLA
48859,"MOUNT PLEASANT, MI",MOUNT PLEASANT,MI,ISABELLA
48860,"MUIR, MI",MUIR,MI,IONIA
49761,"MULLETT LAKE, MI",MULLETT LAKE,MI,CHEBOYGAN
48861,"MULLIKEN, MI",MULLIKEN,MI,EATON
48747,"MUNGER, MI",MUNGER,MI,BAY
49862,"MUNISING, MI",MUNISING,MI,ALGER
49259,"MUNITH, MI",MUNITH,MI,JACKSON
49440,"MUSKEGON, MI",MUSKEGON,MI,MUSKEGON
49441,"MUSKEGON, MI",MUSKEGON,MI,MUSKEGON
49442,"MUSKEGON, MI",MUSKEGON,MI,MUSKEGON
49443,"MUSKEGON, MI",MUSKEGON,MI,MUSKEGON
49444,"MUSKEGON, MI",MUSKEGON,MI,MUSKEGON
49445,"MUSKEGON, MI",MUSKEGON,MI,MUSKEGON
49863,"NADEAU, MI",NADEAU,MI,MENOMINEE
49864,"NAHMA, MI",NAHMA,MI,DELTA
49261,"NAPOLEON, MI",NAPOLEON,MI,JACKSON
49073,"NASHVILLE, MI",NASHVILLE,MI,BARRY
48748,"NATIONAL CITY, MI",NATIONAL CITY,MI,IOSCO
49762,"NAUBINWAY, MI",NAUBINWAY,MI,MACKINAC
49074,"NAZARETH, MI",NAZARETH,MI,KALAMAZOO
49866,"NEGAUNEE, MI",NEGAUNEE,MI,MARQUETTE
48047,"NEW BALTIMORE, MI",NEW BALTIMORE,MI,MACOMB
48051,"NEW BALTIMORE, MI",NEW BALTIMORE,MI,MACOMB
48164,"NEW BOSTON, MI",NEW BOSTON,MI,WAYNE
49117,"NEW BUFFALO, MI",NEW BUFFALO,MI,BERRIEN
49446,"NEW ERA, MI",NEW ERA,MI,OCEANA
48048,"NEW HAVEN, MI",NEW HAVEN,MI,MACOMB
48050,"NEW HAVEN, MI",NEW HAVEN,MI,MACOMB
48165,"NEW HUDSON, MI",NEW HUDSON,MI,OAKLAND
48460,"NEW LOTHROP, MI",NEW LOTHROP,MI,SHIAWASSEE
49119,"NEW TROY, MI",NEW TROY,MI,BERRIEN
49337,"NEWAYGO, MI",NEWAYGO,MI,NEWAYGO
49868,"NEWBERRY, MI",NEWBERRY,MI,LUCE
48166,"NEWPORT, MI",NEWPORT,MI,MONROE
49120,"NILES, MI",NILES,MI,BERRIEN
49262,"NORTH ADAMS, MI",NORTH ADAMS,MI,HILLSDALE
48461,"NORTH BRANCH, MI",NORTH BRANCH,MI,LAPEER
48049,"NORTH STREET, MI",NORTH STREET,MI,SAINT CLAIR
49670,"NORTHPORT, MI",NORTHPORT,MI,LEELANAU
48167,"NORTHVILLE, MI",NORTHVILLE,MI,WAYNE
48168,"NORTHVILLE, MI",NORTHVILLE,MI,WAYNE
49870,"NORWAY, MI",NORWAY,MI,DICKINSON
49075,"NOTTAWA, MI",NOTTAWA,MI,SAINT JOSEPH
48374,"NOVI, MI",NOVI,MI,OAKLAND
48375,"NOVI, MI",NOVI,MI,OAKLAND
48376,"NOVI, MI",NOVI,MI,OAKLAND
48377,"NOVI, MI",NOVI,MI,OAKLAND
49448,"NUNICA, MI",NUNICA,MI,OTTAWA
48237,"OAK PARK, MI",OAK PARK,MI,OAKLAND
48363,"OAKLAND, MI",OAKLAND,MI,OAKLAND
48649,"OAKLEY, MI",OAKLEY,MI,SAGINAW
49764,"ODEN, MI",ODEN,MI,EMMET
48805,"OKEMOS, MI",OKEMOS,MI,INGHAM
48864,"OKEMOS, MI",OKEMOS,MI,INGHAM
49673,"OLD MISSION, MI",OLD MISSION,MI,GRAND TRAVERSE
49076,"OLIVET, MI",OLIVET,MI,EATON
49674,"OMENA, MI",OMENA,MI,LEELANAU
48749,"OMER, MI",OMER,MI,ARENAC
49765,"ONAWAY, MI",ONAWAY,MI,PRESQUE ISLE
49675,"ONEKAMA, MI",ONEKAMA,MI,MANISTEE
49264,"ONONDAGA, MI",ONONDAGA,MI,INGHAM
49265,"ONSTED, MI",ONSTED,MI,LENAWEE
49953,"ONTONAGON, MI",ONTONAGON,MI,ONTONAGON
48865,"ORLEANS, MI",ORLEANS,MI,IONIA
48462,"ORTONVILLE, MI",ORTONVILLE,MI,OAKLAND
48750,"OSCODA, MI",OSCODA,MI,IOSCO
49077,"OSHTEMO, MI",OSHTEMO,MI,KALAMAZOO
49266,"OSSEO, MI",OSSEO,MI,HILLSDALE
49766,"OSSINEKE, MI",OSSINEKE,MI,ALPENA
48463,"OTISVILLE, MI",OTISVILLE,MI,GENESEE
49078,"OTSEGO, MI",OTSEGO,MI,ALLEGAN
49267,"OTTAWA LAKE, MI",OTTAWA LAKE,MI,MONROE
48464,"OTTER LAKE, MI",OTTER LAKE,MI,LAPEER
48866,"OVID, MI",OVID,MI,CLINTON
48754,"OWENDALE, MI",OWENDALE,MI,HURON
48867,"OWOSSO, MI",OWOSSO,MI,SHIAWASSEE
48370,"OXFORD, MI",OXFORD,MI,OAKLAND
48371,"OXFORD, MI",OXFORD,MI,OAKLAND
49955,"PAINESDALE, MI",PAINESDALE,MI,HOUGHTON
49871,"PALMER, MI",PALMER,MI,MARQUETTE
48465,"PALMS, MI",PALMS,MI,SANILAC
49268,"PALMYRA, MI",PALMYRA,MI,LENAWEE
48870,"PALO, MI",PALO,MI,IONIA
49768,"PARADISE, MI",PARADISE,MI,CHIPPEWA
49338,"PARIS, MI",PARIS,MI,MECOSTA
49269,"PARMA, MI",PARMA,MI,JACKSON
49079,"PAW PAW, MI",PAW PAW,MI,VAN BUREN
48466,"PECK, MI",PECK,MI,SANILAC
49958,"PELKIE, MI",PELKIE,MI,HOUGHTON
49769,"PELLSTON, MI",PELLSTON,MI,EMMET
49449,"PENTWATER, MI",PENTWATER,MI,OCEANA
49872,"PERKINS, MI",PERKINS,MI,DELTA
48871,"PERRINTON, MI",PERRINTON,MI,GRATIOT
49873,"PERRONVILLE, MI",PERRONVILLE,MI,MENOMINEE
48872,"PERRY, MI",PERRY,MI,SHIAWASSEE
49270,"PETERSBURG, MI",PETERSBURG,MI,MONROE
49770,"PETOSKEY, MI",PETOSKEY,MI,EMMET
48873,"PEWAMO, MI",PEWAMO,MI,IONIA
49774,"PICKFORD, MI",PICKFORD,MI,CHIPPEWA
49339,"PIERSON, MI",PIERSON,MI,MONTCALM
48755,"PIGEON, MI",PIGEON,MI,HURON
48169,"PINCKNEY, MI",PINCKNEY,MI,LIVINGSTON
48650,"PINCONNING, MI",PINCONNING,MI,BAY
49271,"PITTSFORD, MI",PITTSFORD,MI,HILLSDALE
49080,"PLAINWELL, MI",PLAINWELL,MI,ALLEGAN
49272,"PLEASANT LAKE, MI",PLEASANT LAKE,MI,JACKSON
48069,"PLEASANT RIDGE, MI",PLEASANT RIDGE,MI,OAKLAND
48170,"PLYMOUTH, MI",PLYMOUTH,MI,WAYNE
49775,"POINTE AUX PINS, MI",POINTE AUX PINS,MI,MACKINAC
48874,"POMPEII, MI",POMPEII,MI,GRATIOT
48340,"PONTIAC, MI",PONTIAC,MI,OAKLAND
48341,"PONTIAC, MI",PONTIAC,MI,OAKLAND
48342,"PONTIAC, MI",PONTIAC,MI,OAKLAND
48343,"PONTIAC, MI",PONTIAC,MI,OAKLAND
48467,"PORT AUSTIN, MI",PORT AUSTIN,MI,HURON
48468,"PORT HOPE, MI",PORT HOPE,MI,HURON
48060,"PORT HURON, MI",PORT HURON,MI,SAINT CLAIR
48061,"PORT HURON, MI",PORT HURON,MI,SAINT CLAIR
48469,"PORT SANILAC, MI",PORT SANILAC,MI,SANILAC
49002,"PORTAGE, MI",PORTAGE,MI,KALAMAZOO
49024,"PORTAGE, MI",PORTAGE,MI,KALAMAZOO
49081,"PORTAGE, MI",PORTAGE,MI,KALAMAZOO
48875,"PORTLAND, MI",PORTLAND,MI,IONIA
49776,"POSEN, MI",POSEN,MI,PRESQUE ISLE
48876,"POTTERVILLE, MI",POTTERVILLE,MI,EATON
49874,"POWERS, MI",POWERS,MI,MENOMINEE
48756,"PRESCOTT, MI",PRESCOTT,MI,OGEMAW
49777,"PRESQUE ISLE, MI",PRESQUE ISLE,MI,PRESQUE ISLE
48651,"PRUDENVILLE, MI",PRUDENVILLE,MI,ROSCOMMON
49450,"PULLMAN, MI",PULLMAN,MI,ALLEGAN
49082,"QUINCY, MI",QUINCY,MI,BRANCH
49876,"QUINNESEC, MI",QUINNESEC,MI,DICKINSON
49877,"RALPH, MI",RALPH,MI,DICKINSON
49959,"RAMSAY, MI",RAMSAY,MI,GOGEBIC
49676,"RAPID CITY, MI",RAPID CITY,MI,KALKASKA
49878,"RAPID RIVER, MI",RAPID RIVER,MI,DELTA
49451,"RAVENNA, MI",RAVENNA,MI,MUSKEGON
48096,"RAY, MI",RAY,MI,MACOMB
49274,"READING, MI",READING,MI,HILLSDALE
48239,"REDFORD, MI",REDFORD,MI,WAYNE
48240,"REDFORD, MI",REDFORD,MI,WAYNE
49677,"REED CITY, MI",REED CITY,MI,OSCEOLA
48757,"REESE, MI",REESE,MI,TUSCOLA
49340,"REMUS, MI",REMUS,MI,MECOSTA
49879,"REPUBLIC, MI",REPUBLIC,MI,MARQUETTE
48652,"RHODES, MI",RHODES,MI,GLADWIN
49083,"RICHLAND, MI",RICHLAND,MI,KALAMAZOO
48062,"RICHMOND, MI",RICHMOND,MI,MACOMB
48758,"RICHVILLE, MI",RICHVILLE,MI,TUSCOLA
49276,"RIGA, MI",RIGA,MI,LENAWEE
48218,"RIVER ROUGE, MI",RIVER ROUGE,MI,WAYNE
48877,"RIVERDALE, MI",RIVERDALE,MI,GRATIOT
49084,"RIVERSIDE, MI",RIVERSIDE,MI,BERRIEN
48193,"RIVERVIEW, MI",RIVERVIEW,MI,WAYNE
49277,"RIVES JUNCTION, MI",RIVES JUNCTION,MI,JACKSON
48306,"ROCHESTER, MI",ROCHESTER,MI,OAKLAND
48307,"ROCHESTER, MI",ROCHESTER,MI,OAKLAND
48308,"ROCHESTER, MI",ROCHESTER,MI,OAKLAND
48309,"ROCHESTER, MI",ROCHESTER,MI,OAKLAND
49880,"ROCK, MI",ROCK,MI,DELTA
49341,"ROCKFORD, MI",ROCKFORD,MI,KENT
49351,"ROCKFORD, MI",ROCKFORD,MI,KENT
49960,"ROCKLAND, MI",ROCKLAND,MI,ONTONAGON
48173,"ROCKWOOD, MI",ROCKWOOD,MI,WAYNE
49342,"RODNEY, MI",RODNEY,MI,MECOSTA
49779,"ROGERS CITY, MI",ROGERS CITY,MI,PRESQUE ISLE
48065,"ROMEO, MI",ROMEO,MI,MACOMB
48174,"ROMULUS, MI",ROMULUS,MI,WAYNE
48653,"ROSCOMMON, MI",ROSCOMMON,MI,ROSCOMMON
48654,"ROSE CITY, MI",ROSE CITY,MI,OGEMAW
48878,"ROSEBUSH, MI",ROSEBUSH,MI,ISABELLA
48066,"ROSEVILLE, MI",ROSEVILLE,MI,MACOMB
49452,"ROTHBURY, MI",ROTHBURY,MI,OCEANA
48067,"ROYAL OAK, MI",ROYAL OAK,MI,OAKLAND
48068,"ROYAL OAK, MI",ROYAL OAK,MI,OAKLAND
48073,"ROYAL OAK, MI",ROYAL OAK,MI,OAKLAND
49780,"RUDYARD, MI",RUDYARD,MI,CHIPPEWA
49826,"RUMELY, MI",RUMELY,MI,ALGER
48470,"RUTH, MI",RUTH,MI,HURON
48601,"SAGINAW, MI",SAGINAW,MI,SAGINAW
48602,"SAGINAW, MI",SAGINAW,MI,SAGINAW
48603,"SAGINAW, MI",SAGINAW,MI,SAGINAW
48604,"SAGINAW, MI",SAGINAW,MI,SAGINAW
48605,"SAGINAW, MI",SAGINAW,MI,SAGINAW
48606,"SAGINAW, MI",SAGINAW,MI,SAGINAW
48607,"SAGINAW, MI",SAGINAW,MI,SAGINAW
48608,"SAGINAW, MI",SAGINAW,MI,SAGINAW
48609,"SAGINAW, MI",SAGINAW,MI,SAGINAW
48638,"SAGINAW, MI",SAGINAW,MI,SAGINAW
49881,"SAGOLA, MI",SAGOLA,MI,DICKINSON
48655,"SAINT CHARLES, MI",SAINT CHARLES,MI,SAGINAW
48079,"SAINT CLAIR, MI",SAINT CLAIR,MI,SAINT CLAIR
48080,"SAINT CLAIR SHORES, MI",SAINT CLAIR SHORES,MI,MACOMB
48081,"SAINT CLAIR SHORES, MI",SAINT CLAIR SHORES,MI,MACOMB
48082,"SAINT CLAIR SHORES, MI",SAINT CLAIR SHORES,MI,MACOMB
48656,"SAINT HELEN, MI",SAINT HELEN,MI,ROSCOMMON
49781,"SAINT IGNACE, MI",SAINT IGNACE,MI,MACKINAC
48879,"SAINT JOHNS, MI",SAINT JOHNS,MI,CLINTON
49085,"SAINT JOSEPH, MI",SAINT JOSEPH,MI,BERRIEN
48880,"SAINT LOUIS, MI",SAINT LOUIS,MI,GRATIOT
48175,"SALEM, MI",SALEM,MI,WASHTENAW
48176,"SALINE, MI",SALINE,MI,WASHTENAW
48177,"SAMARIA, MI",SAMARIA,MI,MONROE
49279,"SAND CREEK, MI",SAND CREEK,MI,LENAWEE
49343,"SAND LAKE, MI",SAND LAKE,MI,KENT
48471,"SANDUSKY, MI",SANDUSKY,MI,SANILAC
48657,"SANFORD, MI",SANFORD,MI,MIDLAND
48881,"SARANAC, MI",SARANAC,MI,IONIA
49453,"SAUGATUCK, MI",SAUGATUCK,MI,ALLEGAN
49783,"SAULT SAINTE MARIE, MI",SAULT SAINTE MARIE,MI,CHIPPEWA
49125,"SAWYER, MI",SAWYER,MI,BERRIEN
49087,"SCHOOLCRAFT, MI",SCHOOLCRAFT,MI,KALAMAZOO
49088,"SCOTTS, MI",SCOTTS,MI,KALAMAZOO
49454,"SCOTTVILLE, MI",SCOTTVILLE,MI,MASON
49679,"SEARS, MI",SEARS,MI,OSCEOLA
48759,"SEBEWAING, MI",SEBEWAING,MI,HURON
49883,"SENEY, MI",SENEY,MI,SCHOOLCRAFT
48882,"SHAFTSBURG, MI",SHAFTSBURG,MI,SHIAWASSEE
49455,"SHELBY, MI",SHELBY,MI,OCEANA
49344,"SHELBYVILLE, MI",SHELBYVILLE,MI,ALLEGAN
48883,"SHEPHERD, MI",SHEPHERD,MI,ISABELLA
48884,"SHERIDAN, MI",SHERIDAN,MI,MONTCALM
49089,"SHERWOOD, MI",SHERWOOD,MI,BRANCH
49884,"SHINGLETON, MI",SHINGLETON,MI,ALGER
48885,"SIDNEY, MI",SIDNEY,MI,MONTCALM
48760,"SILVERWOOD, MI",SILVERWOOD,MI,LAPEER
48886,"SIX LAKES, MI",SIX LAKES,MI,MONTCALM
49885,"SKANDIA, MI",SKANDIA,MI,MARQUETTE
49962,"SKANEE, MI",SKANEE,MI,BARAGA
48074,"SMITHS CREEK, MI",SMITHS CREEK,MI,SAINT CLAIR
48887,"SMYRNA, MI",SMYRNA,MI,IONIA
48472,"SNOVER, MI",SNOVER,MI,SANILAC
49126,"SODUS, MI",SODUS,MI,BERRIEN
49281,"SOMERSET, MI",SOMERSET,MI,HILLSDALE
49282,"SOMERSET CENTER, MI",SOMERSET CENTER,MI,HILLSDALE
49680,"SOUTH BOARDMAN, MI",SOUTH BOARDMAN,MI,KALKASKA
48761,"SOUTH BRANCH, MI",SOUTH BRANCH,MI,OGEMAW
49090,"SOUTH HAVEN, MI",SOUTH HAVEN,MI,VAN BUREN
48178,"SOUTH LYON, MI",SOUTH LYON,MI,OAKLAND
49963,"SOUTH RANGE, MI",SOUTH RANGE,MI,HOUGHTON
48179,"SOUTH ROCKWOOD, MI",SOUTH ROCKWOOD,MI,MONROE
48033,"SOUTHFIELD, MI",SOUTHFIELD,MI,OAKLAND
48034,"SOUTHFIELD, MI",SOUTHFIELD,MI,OAKLAND
48037,"SOUTHFIELD, MI",SOUTHFIELD,MI,OAKLAND
48075,"SOUTHFIELD, MI",SOUTHFIELD,MI,OAKLAND
48076,"SOUTHFIELD, MI",SOUTHFIELD,MI,OAKLAND
48086,"SOUTHFIELD, MI",SOUTHFIELD,MI,OAKLAND
48195,"SOUTHGATE, MI",SOUTHGATE,MI,WAYNE
49886,"SPALDING, MI",SPALDING,MI,MENOMINEE
49345,"SPARTA, MI",SPARTA,MI,KENT
49283,"SPRING ARBOR, MI",SPRING ARBOR,MI,JACKSON
49456,"SPRING LAKE, MI",SPRING LAKE,MI,OTTAWA
49284,"SPRINGPORT, MI",SPRINGPORT,MI,JACKSON
48762,"SPRUCE, MI",SPRUCE,MI,ALCONA
49964,"STAMBAUGH, MI",STAMBAUGH,MI,IRON
48658,"STANDISH, MI",STANDISH,MI,ARENAC
48888,"STANTON, MI",STANTON,MI,MONTCALM
49346,"STANWOOD, MI",STANWOOD,MI,MECOSTA
49887,"STEPHENSON, MI",STEPHENSON,MI,MENOMINEE
48659,"STERLING, MI",STERLING,MI,ARENAC
48310,"STERLING HEIGHTS, MI",STERLING HEIGHTS,MI,MACOMB
48311,"STERLING HEIGHTS, MI",STERLING HEIGHTS,MI,MACOMB
48312,"STERLING HEIGHTS, MI",STERLING HEIGHTS,MI,MACOMB
48313,"STERLING HEIGHTS, MI",STERLING HEIGHTS,MI,MACOMB
48314,"STERLING HEIGHTS, MI",STERLING HEIGHTS,MI,MACOMB
49127,"STEVENSVILLE, MI",STEVENSVILLE,MI,BERRIEN
49285,"STOCKBRIDGE, MI",STOCKBRIDGE,MI,INGHAM
49091,"STURGIS, MI",STURGIS,MI,SAINT JOSEPH
48889,"SUMNER, MI",SUMNER,MI,GRATIOT
48890,"SUNFIELD, MI",SUNFIELD,MI,EATON
49682,"SUTTONS BAY, MI",SUTTONS BAY,MI,LEELANAU
48473,"SWARTZ CREEK, MI",SWARTZ CREEK,MI,GENESEE
48763,"TAWAS CITY, MI",TAWAS CITY,MI,IOSCO
48764,"TAWAS CITY, MI",TAWAS CITY,MI,IOSCO
48180,"TAYLOR, MI",TAYLOR,MI,WAYNE
49286,"TECUMSEH, MI",TECUMSEH,MI,LENAWEE
49092,"TEKONSHA, MI",TEKONSHA,MI,CALHOUN
48182,"TEMPERANCE, MI",TEMPERANCE,MI,MONROE
49683,"THOMPSONVILLE, MI",THOMPSONVILLE,MI,BENZIE
49128,"THREE OAKS, MI",THREE OAKS,MI,BERRIEN
49093,"THREE RIVERS, MI",THREE RIVERS,MI,SAINT JOSEPH
49287,"TIPTON, MI",TIPTON,MI,LENAWEE
49965,"TOIVOLA, MI",TOIVOLA,MI,HOUGHTON
49791,"TOPINABEE, MI",TOPINABEE,MI,CHEBOYGAN
49792,"TOWER, MI",TOWER,MI,CHEBOYGAN
49684,"TRAVERSE CITY, MI",TRAVERSE CITY,MI,GRAND TRAVERSE
49685,"TRAVERSE CITY, MI",TRAVERSE CITY,MI,GRAND TRAVERSE
49686,"TRAVERSE CITY, MI",TRAVERSE CITY,MI,GRAND TRAVERSE
49696,"TRAVERSE CITY, MI",TRAVERSE CITY,MI,GRAND TRAVERSE
49891,"TRENARY, MI",TRENARY,MI,ALGER
48183,"TRENTON, MI",TRENTON,MI,WAYNE
49967,"TROUT CREEK, MI",TROUT CREEK,MI,ONTONAGON
49793,"TROUT LAKE, MI",TROUT LAKE,MI,CHIPPEWA
48007,"TROY, MI",TROY,MI,OAKLAND
48083,"TROY, MI",TROY,MI,OAKLAND
48084,"TROY, MI",TROY,MI,OAKLAND
48085,"TROY, MI",TROY,MI,OAKLAND
48098,"TROY, MI",TROY,MI,OAKLAND
48099,"TROY, MI",TROY,MI,OAKLAND
49347,"TRUFANT, MI",TRUFANT,MI,MONTCALM
48765,"TURNER, MI",TURNER,MI,ARENAC
49688,"TUSTIN, MI",TUSTIN,MI,OSCEOLA
49457,"TWIN LAKE, MI",TWIN LAKE,MI,MUSKEGON
48766,"TWINING, MI",TWINING,MI,ARENAC
48475,"UBLY, MI",UBLY,MI,HURON
49130,"UNION, MI",UNION,MI,CASS
49094,"UNION CITY, MI",UNION CITY,MI,BRANCH
48387,"UNION LAKE, MI",UNION LAKE,MI,OAKLAND
49129,"UNION PIER, MI",UNION PIER,MI,BERRIEN
48767,"UNIONVILLE, MI",UNIONVILLE,MI,TUSCOLA
48710,"UNIVERSITY CENTER, MI",UNIVERSITY CENTER,MI,BAY
48315,"UTICA, MI",UTICA,MI,MACOMB
48316,"UTICA, MI",UTICA,MI,MACOMB
48317,"UTICA, MI",UTICA,MI,MACOMB
48318,"UTICA, MI",UTICA,MI,MACOMB
49095,"VANDALIA, MI",VANDALIA,MI,CASS
49795,"VANDERBILT, MI",VANDERBILT,MI,OTSEGO
48768,"VASSAR, MI",VASSAR,MI,TUSCOLA
49096,"VERMONTVILLE, MI",VERMONTVILLE,MI,EATON
48476,"VERNON, MI",VERNON,MI,SHIAWASSEE
48891,"VESTABURG, MI",VESTABURG,MI,MONTCALM
49097,"VICKSBURG, MI",VICKSBURG,MI,KALAMAZOO
49892,"VULCAN, MI",VULCAN,MI,DICKINSON
49968,"WAKEFIELD, MI",WAKEFIELD,MI,GOGEBIC
49288,"WALDRON, MI",WALDRON,MI,HILLSDALE
49458,"WALHALLA, MI",WALHALLA,MI,MASON
49459,"WALKERVILLE, MI",WALKERVILLE,MI,OCEANA
49893,"WALLACE, MI",WALLACE,MI,MENOMINEE
48390,"WALLED LAKE, MI",WALLED LAKE,MI,OAKLAND
49796,"WALLOON LAKE, MI",WALLOON LAKE,MI,CHARLEVOIX
48088,"WARREN, MI",WARREN,MI,MACOMB
48089,"WARREN, MI",WARREN,MI,MACOMB
48090,"WARREN, MI",WARREN,MI,MACOMB
48091,"WARREN, MI",WARREN,MI,MACOMB
48092,"WARREN, MI",WARREN,MI,MACOMB
48093,"WARREN, MI",WARREN,MI,MACOMB
48397,"WARREN, MI",WARREN,MI,MACOMB
48094,"WASHINGTON, MI",WASHINGTON,MI,MACOMB
48095,"WASHINGTON, MI",WASHINGTON,MI,MACOMB
48327,"WATERFORD, MI",WATERFORD,MI,OAKLAND
48328,"WATERFORD, MI",WATERFORD,MI,OAKLAND
48329,"WATERFORD, MI",WATERFORD,MI,OAKLAND
49797,"WATERS, MI",WATERS,MI,OTSEGO
49969,"WATERSMEET, MI",WATERSMEET,MI,GOGEBIC
49098,"WATERVLIET, MI",WATERVLIET,MI,BERRIEN
49970,"WATTON, MI",WATTON,MI,BARAGA
49348,"WAYLAND, MI",WAYLAND,MI,ALLEGAN
48184,"WAYNE, MI",WAYNE,MI,WAYNE
48892,"WEBBERVILLE, MI",WEBBERVILLE,MI,INGHAM
48893,"WEIDMAN, MI",WEIDMAN,MI,ISABELLA
49894,"WELLS, MI",WELLS,MI,DELTA
49689,"WELLSTON, MI",WELLSTON,MI,MANISTEE
48322,"WEST BLOOMFIELD, MI",WEST BLOOMFIELD,MI,OAKLAND
48323,"WEST BLOOMFIELD, MI",WEST BLOOMFIELD,MI,OAKLAND
48324,"WEST BLOOMFIELD, MI",WEST BLOOMFIELD,MI,OAKLAND
48325,"WEST BLOOMFIELD, MI",WEST BLOOMFIELD,MI,OAKLAND
48661,"WEST BRANCH, MI",WEST BRANCH,MI,OGEMAW
49460,"WEST OLIVE, MI",WEST OLIVE,MI,OTTAWA
48185,"WESTLAND, MI",WESTLAND,MI,WAYNE
48186,"WESTLAND, MI",WESTLAND,MI,WAYNE
49289,"WESTON, MI",WESTON,MI,LENAWEE
48894,"WESTPHALIA, MI",WESTPHALIA,MI,CLINTON
49895,"WETMORE, MI",WETMORE,MI,ALGER
48662,"WHEELER, MI",WHEELER,MI,GRATIOT
49349,"WHITE CLOUD, MI",WHITE CLOUD,MI,NEWAYGO
48383,"WHITE LAKE, MI",WHITE LAKE,MI,OAKLAND
48386,"WHITE LAKE, MI",WHITE LAKE,MI,OAKLAND
49099,"WHITE PIGEON, MI",WHITE PIGEON,MI,SAINT JOSEPH
49971,"WHITE PINE, MI",WHITE PINE,MI,ONTONAGON
49461,"WHITEHALL, MI",WHITEHALL,MI,MUSKEGON
48189,"WHITMORE LAKE, MI",WHITMORE LAKE,MI,WASHTENAW
48190,"WHITTAKER, MI",WHITTAKER,MI,WASHTENAW
48770,"WHITTEMORE, MI",WHITTEMORE,MI,IOSCO
49690,"WILLIAMSBURG, MI",WILLIAMSBURG,MI,GRAND TRAVERSE
48895,"WILLIAMSTON, MI",WILLIAMSTON,MI,INGHAM
48191,"WILLIS, MI",WILLIS,MI,WASHTENAW
49896,"WILSON, MI",WILSON,MI,MENOMINEE
48896,"WINN, MI",WINN,MI,ISABELLA
48393,"WIXOM, MI",WIXOM,MI,OAKLAND
49799,"WOLVERINE, MI",WOLVERINE,MI,CHEBOYGAN
48897,"WOODLAND, MI",WOODLAND,MI,BARRY
48192,"WYANDOTTE, MI",WYANDOTTE,MI,WAYNE
49509,"WYOMING, MI",WYOMING,MI,KENT
49519,"WYOMING, MI",WYOMING,MI,KENT
48097,"YALE, MI",YALE,MI,SAINT CLAIR
48197,"YPSILANTI, MI",YPSILANTI,MI,WASHTENAW
48198,"YPSILANTI, MI",YPSILANTI,MI,WASHTENAW
49464,"ZEELAND, MI",ZEELAND,MI,OTTAWA
,,,,
,,,,
"For more information, kindly visit : www.downloadexcelfiles.com",,,,
